start=new Date('2021-12-08T00:00:00.000Z').valueOf();
sats=[{"MEAN_MOTION_DOT":"0.00000485","CLASSIFICATION_TYPE":"U","PERIOD":"95.593","PERIAPSIS":"545.833","ARG_OF_PERICENTER":"70.5445","BSTAR":"0.00005144900000","INCLINATION":"53.0540","MEAN_MOTION":"15.06393646","OBJECT_TYPE":"PAYLOAD","TLE_LINE1":"1 46067U 20055AS  21341.79385643  .00000485  00000-0  51449-4 0  9995","ECCENTRICITY":"0.00020220","SEMIMAJOR_AXIS":"6925.368","NORAD_CAT_ID":"46067","GP_ID":"191296873","ELEMENT_SET_NO":"999","EPHEMERIS_TYPE":"0","MEAN_MOTION_DDOT":"0.0000000000000","LAUNCH_DATE":"2020-08-07","TLE_LINE2":"2 46067  53.0540 227.8446 0002022  70.5445 289.5762 15.06393646 75257","APOAPSIS":"548.633","CENTER_NAME":"EARTH","FILE":"3235143","COUNTRY_CODE":"US","REF_FRAME":"TEME","MEAN_ELEMENT_THEORY":"SGP4","RCS_SIZE":"LARGE","DECAY_DATE":null,"SITE":"AFETR","EPOCH":"2021-12-07T19:03:09.195552","TIME_SYSTEM":"UTC","REV_AT_EPOCH":"7525","RA_OF_ASC_NODE":"227.8446","MEAN_ANOMALY":"289.5762","OBJECT_ID":"2020-055AS","OBJECT_NAME":"STARLINK-1529"},{"BSTAR":"-0.00000701280000","ARG_OF_PERICENTER":"67.2207","MEAN_MOTION":"15.06391414","INCLINATION":"53.0525","CLASSIFICATION_TYPE":"U","PERIOD":"95.593","MEAN_MOTION_DOT":"-0.00000386","PERIAPSIS":"545.763","NORAD_CAT_ID":"46068","SEMIMAJOR_AXIS":"6925.375","TLE_LINE1":"1 46068U 20055AT  21341.73856770 -.00000386  00000-0 -70128-5 0  9992","ECCENTRICITY":"0.00021330","ELEMENT_SET_NO":"999","GP_ID":"191298122","OBJECT_TYPE":"PAYLOAD","LAUNCH_DATE":"2020-08-07","FILE":"3235143","CENTER_NAME":"EARTH","APOAPSIS":"548.717","TLE_LINE2":"2 46068  53.0525 228.0788 0002133  67.2207 292.9007 15.06391414 75245","MEAN_MOTION_DDOT":"0.0000000000000","EPHEMERIS_TYPE":"0","RA_OF_ASC_NODE":"228.0788","TIME_SYSTEM":"UTC","REV_AT_EPOCH":"7524","EPOCH":"2021-12-07T17:43:32.249280","OBJECT_NAME":"STARLINK-1532","OBJECT_ID":"2020-055AT","MEAN_ANOMALY":"292.9007","MEAN_ELEMENT_THEORY":"SGP4","REF_FRAME":"TEME","COUNTRY_CODE":"US","SITE":"AFETR","DECAY_DATE":null,"RCS_SIZE":"LARGE"},{"GP_ID":"191297875","ELEMENT_SET_NO":"999","NORAD_CAT_ID":"46069","ECCENTRICITY":"0.00020630","TLE_LINE1":"1 46069U 20055AU  21341.68695715 -.00000795  00000-0 -34500-4 0  9994","SEMIMAJOR_AXIS":"6925.386","OBJECT_TYPE":"PAYLOAD","MEAN_MOTION":"15.06387844","INCLINATION":"53.0532","BSTAR":"-0.00003450000000","ARG_OF_PERICENTER":"70.1704","PERIAPSIS":"545.822","MEAN_MOTION_DOT":"-0.00000795","PERIOD":"95.593","CLASSIFICATION_TYPE":"U","OBJECT_NAME":"STARLINK-1533","MEAN_ANOMALY":"289.9507","OBJECT_ID":"2020-055AU","TIME_SYSTEM":"UTC","REV_AT_EPOCH":"7524","RA_OF_ASC_NODE":"228.3166","EPOCH":"2021-12-07T16:29:13.097760","SITE":"AFETR","RCS_SIZE":"LARGE","DECAY_DATE":null,"REF_FRAME":"TEME","MEAN_ELEMENT_THEORY":"SGP4","COUNTRY_CODE":"US","FILE":"3235143","APOAPSIS":"548.680","TLE_LINE2":"2 46069  53.0532 228.3166 0002063  70.1704 289.9507 15.06387844 75247","CENTER_NAME":"EARTH","LAUNCH_DATE":"2020-08-07","MEAN_MOTION_DDOT":"0.0000000000000","EPHEMERIS_TYPE":"0"},{"MEAN_MOTION_DDOT":"0.0000000000000","EPHEMERIS_TYPE":"0","LAUNCH_DATE":"2020-08-07","FILE":"3235143","CENTER_NAME":"EARTH","APOAPSIS":"548.650","TLE_LINE2":"2 46070  53.0533 228.5471 0002061  65.2995 294.8208 15.06397145 75233","MEAN_ELEMENT_THEORY":"SGP4","REF_FRAME":"TEME","COUNTRY_CODE":"US","SITE":"AFETR","DECAY_DATE":null,"RCS_SIZE":"LARGE","RA_OF_ASC_NODE":"228.5471","REV_AT_EPOCH":"7523","TIME_SYSTEM":"UTC","EPOCH":"2021-12-07T15:14:55.251744","OBJECT_NAME":"STARLINK-1536","OBJECT_ID":"2020-055AV","MEAN_ANOMALY":"294.8208","PERIOD":"95.592","CLASSIFICATION_TYPE":"U","MEAN_MOTION_DOT":"0.00001066","PERIAPSIS":"545.795","BSTAR":"0.00009047400000","ARG_OF_PERICENTER":"65.2995","MEAN_MOTION":"15.06397145","INCLINATION":"53.0533","OBJECT_TYPE":"PAYLOAD","NORAD_CAT_ID":"46070","SEMIMAJOR_AXIS":"6925.357","TLE_LINE1":"1 46070U 20055AV  21341.63536171  .00001066  00000-0  90474-4 0  9993","ECCENTRICITY":"0.00020610","ELEMENT_SET_NO":"999","GP_ID":"191296623"},{"OBJECT_NAME":"STARLINK-1538","MEAN_ANOMALY":"286.8938","OBJECT_ID":"2020-055AW","TIME_SYSTEM":"UTC","REV_AT_EPOCH":"7523","RA_OF_ASC_NODE":"228.4752","EPOCH":"2021-12-07T15:41:26.184192","SITE":"AFETR","DECAY_DATE":null,"RCS_SIZE":"LARGE","REF_FRAME":"TEME","MEAN_ELEMENT_THEORY":"SGP4","COUNTRY_CODE":"US","FILE":"3235143","TLE_LINE2":"2 46071  53.0530 228.4752 0001999  73.2270 286.8938 15.06394123 75230","APOAPSIS":"548.616","CENTER_NAME":"EARTH","LAUNCH_DATE":"2020-08-07","MEAN_MOTION_DDOT":"0.0000000000000","EPHEMERIS_TYPE":"0","GP_ID":"191297374","ELEMENT_SET_NO":"999","NORAD_CAT_ID":"46071","ECCENTRICITY":"0.00019990","TLE_LINE1":"1 46071U 20055AW  21341.65377528  .00001501  00000-0  11966-3 0  9997","SEMIMAJOR_AXIS":"6925.367","OBJECT_TYPE":"PAYLOAD","MEAN_MOTION":"15.06394123","INCLINATION":"53.0530","BSTAR":"0.00011966000000","ARG_OF_PERICENTER":"73.2270","PERIAPSIS":"545.847","MEAN_MOTION_DOT":"0.00001501","PERIOD":"95.593","CLASSIFICATION_TYPE":"U"},{"OBJECT_TYPE":"PAYLOAD","ELEMENT_SET_NO":"999","GP_ID":"191269410","SEMIMAJOR_AXIS":"6925.359","TLE_LINE1":"1 46072U 20055AX  21341.41324885  .00001569  00000-0  12423-3 0  9993","ECCENTRICITY":"0.00021960","NORAD_CAT_ID":"46072","PERIAPSIS":"545.703","CLASSIFICATION_TYPE":"U","PERIOD":"95.592","MEAN_MOTION_DOT":"0.00001569","INCLINATION":"53.0542","MEAN_MOTION":"15.06396614","ARG_OF_PERICENTER":"65.9246","BSTAR":"0.00012423000000","DECAY_DATE":null,"RCS_SIZE":"LARGE","SITE":"AFETR","COUNTRY_CODE":"US","MEAN_ELEMENT_THEORY":"SGP4","REF_FRAME":"TEME","OBJECT_ID":"2020-055AX","MEAN_ANOMALY":"294.1972","OBJECT_NAME":"STARLINK-1539","EPOCH":"2021-12-07T09:55:04.700640","RA_OF_ASC_NODE":"229.5354","TIME_SYSTEM":"UTC","REV_AT_EPOCH":"7518","EPHEMERIS_TYPE":"0","MEAN_MOTION_DDOT":"0.0000000000000","CENTER_NAME":"EARTH","TLE_LINE2":"2 46072  53.0542 229.5354 0002196  65.9246 294.1972 15.06396614 75186","APOAPSIS":"548.745","FILE":"3234816","LAUNCH_DATE":"2020-08-07"},{"GP_ID":"191298376","ELEMENT_SET_NO":"999","TLE_LINE1":"1 46073U 20055AY  21341.82702881  .00001290  00000-0  10551-3 0  9996","ECCENTRICITY":"0.00022190","SEMIMAJOR_AXIS":"6925.349","NORAD_CAT_ID":"46073","OBJECT_TYPE":"PAYLOAD","INCLINATION":"53.0543","MEAN_MOTION":"15.06399748","ARG_OF_PERICENTER":"66.8224","BSTAR":"0.00010551000000","PERIAPSIS":"545.678","MEAN_MOTION_DOT":"0.00001290","CLASSIFICATION_TYPE":"U","PERIOD":"95.592","MEAN_ANOMALY":"293.2999","OBJECT_ID":"2020-055AY","OBJECT_NAME":"STARLINK-1542","EPOCH":"2021-12-07T19:50:55.289184","REV_AT_EPOCH":"7525","TIME_SYSTEM":"UTC","RA_OF_ASC_NODE":"227.7003","RCS_SIZE":"LARGE","DECAY_DATE":null,"SITE":"AFETR","COUNTRY_CODE":"US","REF_FRAME":"TEME","MEAN_ELEMENT_THEORY":"SGP4","APOAPSIS":"548.751","TLE_LINE2":"2 46073  53.0543 227.7003 0002219  66.8224 293.2999 15.06399748 75259","CENTER_NAME":"EARTH","FILE":"3235143","LAUNCH_DATE":"2020-08-07","EPHEMERIS_TYPE":"0","MEAN_MOTION_DDOT":"0.0000000000000"},{"MEAN_MOTION_DOT":"-0.00000362","CLASSIFICATION_TYPE":"U","PERIOD":"95.592","PERIAPSIS":"545.840","ARG_OF_PERICENTER":"64.0406","BSTAR":"-0.00000536830000","INCLINATION":"53.0540","MEAN_MOTION":"15.06397837","OBJECT_TYPE":"PAYLOAD","ECCENTRICITY":"0.00019930","TLE_LINE1":"1 46074U 20055AZ  21341.41419402 -.00000362  00000-0 -53683-5 0  9992","SEMIMAJOR_AXIS":"6925.355","NORAD_CAT_ID":"46074","GP_ID":"191268409","ELEMENT_SET_NO":"999","EPHEMERIS_TYPE":"0","MEAN_MOTION_DDOT":"0.0000000000000","LAUNCH_DATE":"2020-08-07","TLE_LINE2":"2 46074  53.0540 229.5443 0001993  64.0406 296.0788 15.06397837 75181","APOAPSIS":"548.600","CENTER_NAME":"EARTH","FILE":"3234816","COUNTRY_CODE":"US","REF_FRAME":"TEME","MEAN_ELEMENT_THEORY":"SGP4","RCS_SIZE":"LARGE","DECAY_DATE":null,"SITE":"AFETR","EPOCH":"2021-12-07T09:56:26.363328","REV_AT_EPOCH":"7518","TIME_SYSTEM":"UTC","RA_OF_ASC_NODE":"229.5443","MEAN_ANOMALY":"296.0788","OBJECT_ID":"2020-055AZ","OBJECT_NAME":"STARLINK-1549"},{"MEAN_MOTION_DDOT":"0.0000000000000","EPHEMERIS_TYPE":"0","FILE":"3234816","TLE_LINE2":"2 46075  53.0533 230.9257 0002127  70.9862 289.1357 15.06401118 75144","APOAPSIS":"548.683","CENTER_NAME":"EARTH","LAUNCH_DATE":"2020-08-07","SITE":"AFETR","DECAY_DATE":null,"RCS_SIZE":"LARGE","REF_FRAME":"TEME","MEAN_ELEMENT_THEORY":"SGP4","COUNTRY_CODE":"US","OBJECT_NAME":"STARLINK-1551","MEAN_ANOMALY":"289.1357","OBJECT_ID":"2020-055BA","REV_AT_EPOCH":"7514","TIME_SYSTEM":"UTC","RA_OF_ASC_NODE":"230.9257","EPOCH":"2021-12-07T02:35:53.862720","PERIAPSIS":"545.737","MEAN_MOTION_DOT":"0.00002216","CLASSIFICATION_TYPE":"U","PERIOD":"95.592","MEAN_MOTION":"15.06401118","INCLINATION":"53.0533","BSTAR":"0.00016765000000","ARG_OF_PERICENTER":"70.9862","OBJECT_TYPE":"PAYLOAD","GP_ID":"191268659","ELEMENT_SET_NO":"999","NORAD_CAT_ID":"46075","TLE_LINE1":"1 46075U 20055BA  21341.10826230  .00002216  00000-0  16765-3 0  9996","ECCENTRICITY":"0.00021270","SEMIMAJOR_AXIS":"6925.345"},{"ELEMENT_SET_NO":"999","GP_ID":"191269911","NORAD_CAT_ID":"46076","SEMIMAJOR_AXIS":"6925.365","TLE_LINE1":"1 46076U 20055BB  21341.39945922 -.00000076  00000-0  13846-4 0  9999","ECCENTRICITY":"0.00022320","OBJECT_TYPE":"PAYLOAD","MEAN_MOTION":"15.06394582","INCLINATION":"53.0541","BSTAR":"0.00001384600000","ARG_OF_PERICENTER":"62.4832","PERIAPSIS":"545.684","CLASSIFICATION_TYPE":"U","PERIOD":"95.592","MEAN_MOTION_DOT":"-0.00000076","OBJECT_NAME":"STARLINK-1552","OBJECT_ID":"2020-055BB","MEAN_ANOMALY":"297.6384","RA_OF_ASC_NODE":"229.6182","TIME_SYSTEM":"UTC","REV_AT_EPOCH":"7517","EPOCH":"2021-12-07T09:35:13.276608","SITE":"AFETR","RCS_SIZE":"LARGE","DECAY_DATE":null,"MEAN_ELEMENT_THEORY":"SGP4","REF_FRAME":"TEME","COUNTRY_CODE":"US","FILE":"3234816","CENTER_NAME":"EARTH","APOAPSIS":"548.776","TLE_LINE2":"2 46076  53.0541 229.6182 0002232  62.4832 297.6384 15.06394582 75179","LAUNCH_DATE":"2020-08-07","MEAN_MOTION_DDOT":"0.0000000000000","EPHEMERIS_TYPE":"0"}];
